[{"OBJECT_NAME":"COSMOS 2251 DEB","OBJECT_ID":"1993-036BTC","EPOCH":"2026-03-02T06:48:55.396800","MEAN_MOTION":14.78274571,"ECCENTRICITY":0.0092975,"INCLINATION":74.05,"RA_OF_ASC_NODE":280.5392,"ARG_OF_PERICENTER":325.394,"MEAN_ANOMALY":34.1205,"EPHEMERIS_TYPE":0,"CLASSIFICATION_TYPE":"U","NORAD_CAT_ID":38212,"ELEMENT_SET_NO":999,"REV_AT_EPOCH":82485,"BSTAR":0.0003574504,"MEAN_MOTION_DOT":2.754e-5,"MEAN_MOTION_DDOT":0},{"OBJECT_NAME":"COSMOS 2251 DEB","OBJECT_ID":"1993-036BTL","EPOCH":"2026-03-04T23:03:47.328480","MEAN_MOTION":14.99817477,"ECCENTRICITY":0.00032544,"INCLINATION":74.0102,"RA_OF_ASC_NODE":261.9146,"ARG_OF_PERICENTER":227.2009,"MEAN_ANOMALY":132.8905,"EPHEMERIS_TYPE":0,"CLASSIFICATION_TYPE":"U","NORAD_CAT_ID":38220,"ELEMENT_SET_NO":999,"REV_AT_EPOCH":72600,"BSTAR":0.0037982194,"MEAN_MOTION_DOT":0.00047312,"MEAN_MOTION_DDOT":0},{"OBJECT_NAME":"COSMOS 2251 DEB","OBJECT_ID":"1993-036BTP","EPOCH":"2026-03-04T06:18:13.079232","MEAN_MOTION":14.39302078,"ECCENTRICITY":0.00789047,"INCLINATION":74.0123,"RA_OF_ASC_NODE":33.6396,"ARG_OF_PERICENTER":125.873,"MEAN_ANOMALY":300.6999,"EPHEMERIS_TYPE":0,"CLASSIFICATION_TYPE":"U","NORAD_CAT_ID":38479,"ELEMENT_SET_NO":999,"REV_AT_EPOCH":65860,"BSTAR":0.0010705986,"MEAN_MOTION_DOT":3.423e-5,"MEAN_MOTION_DDOT":0},{"OBJECT_NAME":"COSMOS 2251 DEB","OBJECT_ID":"1993-036BTR","EPOCH":"2026-02-27T17:33:35.633088","MEAN_MOTION":13.95198321,"ECCENTRICITY":0.02301647,"INCLINATION":73.9303,"RA_OF_ASC_NODE":234.4494,"ARG_OF_PERICENTER":159.5246,"MEAN_ANOMALY":201.5301,"EPHEMERIS_TYPE":0,"CLASSIFICATION_TYPE":"U","NORAD_CAT_ID":38481,"ELEMENT_SET_NO":999,"REV_AT_EPOCH":60134,"BSTAR":0.0015661763,"MEAN_MOTION_DOT":2.616e-5,"MEAN_MOTION_DDOT":0},{"OBJECT_NAME":"COSMOS 2251 DEB","OBJECT_ID":"1993-036BTT","EPOCH":"2026-02-27T18:32:07.901952","MEAN_MOTION":14.29234836,"ECCENTRICITY":0.0113444,"INCLINATION":74.2588,"RA_OF_ASC_NODE":233.8114,"ARG_OF_PERICENTER":316.0658,"MEAN_ANOMALY":43.1513,"EPHEMERIS_TYPE":0,"CLASSIFICATION_TYPE":"U","NORAD_CAT_ID":38483,"ELEMENT_SET_NO":999,"REV_AT_EPOCH":64578,"BSTAR":0.00070861637,"MEAN_MOTION_DOT":1.905e-5,"MEAN_MOTION_DDOT":0},{"OBJECT_NAME":"COSMOS 2251 DEB","OBJECT_ID":"1993-036BTW","EPOCH":"2026-03-02T08:22:25.156128","MEAN_MOTION":14.76329034,"ECCENTRICITY":0.00308943,"INCLINATION":73.9396,"RA_OF_ASC_NODE":48.4189,"ARG_OF_PERICENTER":186.4811,"MEAN_ANOMALY":242.4245,"EPHEMERIS_TYPE":0,"CLASSIFICATION_TYPE":"U","NORAD_CAT_ID":38486,"ELEMENT_SET_NO":999,"REV_AT_EPOCH":76608,"BSTAR":0.0027827624,"MEAN_MOTION_DOT":0.00019484,"MEAN_MOTION_DDOT":0},{"OBJECT_NAME":"COSMOS 2251 DEB","OBJECT_ID":"1993-036BTX","EPOCH":"2026-02-28T17:34:44.973408","MEAN_MOTION":15.25753352,"ECCENTRICITY":0.00216382,"INCLINATION":73.9681,"RA_OF_ASC_NODE":229.3494,"ARG_OF_PERICENTER":13.6287,"MEAN_ANOMALY":346.5492,"EPHEMERIS_TYPE":0,"CLASSIFICATION_TYPE":"U","NORAD_CAT_ID":38487,"ELEMENT_SET_NO":999,"REV_AT_EPOCH":67986,"BSTAR":0.0024802785,"MEAN_MOTION_DOT":0.00064261,"MEAN_MOTION_DDOT":0},{"OBJECT_NAME":"COSMOS 2251 DEB","OBJECT_ID":"1993-036BTY","EPOCH":"2026-02-24T18:30:19.329120","MEAN_MOTION":14.71359668,"ECCENTRICITY":0.00577032,"INCLINATION":74.0411,"RA_OF_ASC_NODE":81.3577,"ARG_OF_PERICENTER":169.1149,"MEAN_ANOMALY":309.3953,"EPHEMERIS_TYPE":0,"CLASSIFICATION_TYPE":"U","NORAD_CAT_ID":39109,"ELEMENT_SET_NO":999,"REV_AT_EPOCH":66262,"BSTAR":0.00037457225,"MEAN_MOTION_DOT":2.345e-5,"MEAN_MOTION_DDOT":0},{"OBJECT_NAME":"COSMOS 2251 DEB","OBJECT_ID":"1993-036BUC","EPOCH":"2026-03-05T02:37:00.903936","MEAN_MOTION":14.94779651,"ECCENTRICITY":0.00402871,"INCLINATION":73.9991,"RA_OF_ASC_NODE":330.6929,"ARG_OF_PERICENTER":112.4618,"MEAN_ANOMALY":248.084,"EPHEMERIS_TYPE":0,"CLASSIFICATION_TYPE":"U","NORAD_CAT_ID":39546,"ELEMENT_SET_NO":999,"REV_AT_EPOCH":65666,"BSTAR":0.0015103187,"MEAN_MOTION_DOT":0.00016693,"MEAN_MOTION_DDOT":0},{"OBJECT_NAME":"COSMOS 2251 DEB","OBJECT_ID":"1993-036BUD","EPOCH":"2026-02-18T05:36:35.053920","MEAN_MOTION":15.11947293,"ECCENTRICITY":0.0003046,"INCLINATION":73.9998,"RA_OF_ASC_NODE":239.3113,"ARG_OF_PERICENTER":315.2619,"MEAN_ANOMALY":161.0018,"EPHEMERIS_TYPE":0,"CLASSIFICATION_TYPE":"U","NORAD_CAT_ID":39547,"ELEMENT_SET_NO":999,"REV_AT_EPOCH":65042,"BSTAR":0.0029907,"MEAN_MOTION_DOT":0.00051628,"MEAN_MOTION_DDOT":0},{"OBJECT_NAME":"COSMOS 2251 DEB","OBJECT_ID":"1993-036BUK","EPOCH":"2026-02-28T01:31:53.029344","MEAN_MOTION":14.00266341,"ECCENTRICITY":0.02067446,"INCLINATION":74.0287,"RA_OF_ASC_NODE":196.0355,"ARG_OF_PERICENTER":313.8074,"MEAN_ANOMALY":44.6119,"EPHEMERIS_TYPE":0,"CLASSIFICATION_TYPE":"U","NORAD_CAT_ID":39553,"ELEMENT_SET_NO":999,"REV_AT_EPOCH":76699,"BSTAR":0.0010339774,"MEAN_MOTION_DOT":1.814e-5,"MEAN_MOTION_DDOT":0},{"OBJECT_NAME":"COSMOS 2251 DEB","OBJECT_ID":"1993-036BUL","EPOCH":"2026-03-05T01:41:34.217088","MEAN_MOTION":15.21539278,"ECCENTRICITY":0.00126294,"INCLINATION":74.0076,"RA_OF_ASC_NODE":92.9777,"ARG_OF_PERICENTER":269.1512,"MEAN_ANOMALY":122.3269,"EPHEMERIS_TYPE":0,"CLASSIFICATION_TYPE":"U","NORAD_CAT_ID":39554,"ELEMENT_SET_NO":999,"REV_AT_EPOCH":65632,"BSTAR":0.0038585819,"MEAN_MOTION_DOT":0.00088154,"MEAN_MOTION_DDOT":0},{"OBJECT_NAME":"COSMOS 2251 DEB","OBJECT_ID":"1993-036BUQ","EPOCH":"2026-02-07T03:28:40.702656","MEAN_MOTION":14.58844351,"ECCENTRICITY":0.00677691,"INCLINATION":74.0403,"RA_OF_ASC_NODE":193.9274,"ARG_OF_PERICENTER":300.7751,"MEAN_ANOMALY":58.6753,"EPHEMERIS_TYPE":0,"CLASSIFICATION_TYPE":"U","NORAD_CAT_ID":39585,"ELEMENT_SET_NO":999,"REV_AT_EPOCH":63343,"BSTAR":0.00031897443,"MEAN_MOTION_DOT":1.509e-5,"MEAN_MOTION_DDOT":0},{"OBJECT_NAME":"COSMOS 2251 DEB","OBJECT_ID":"1993-036BUR","EPOCH":"2026-03-02T10:22:26.179680","MEAN_MOTION":14.2140898,"ECCENTRICITY":0.01020843,"INCLINATION":74.0074,"RA_OF_ASC_NODE":85.1557,"ARG_OF_PERICENTER":203.0522,"MEAN_ANOMALY":224.9463,"EPHEMERIS_TYPE":0,"CLASSIFICATION_TYPE":"U","NORAD_CAT_ID":39586,"ELEMENT_SET_NO":999,"REV_AT_EPOCH":62104,"BSTAR":0.00036244485,"MEAN_MOTION_DOT":8.09e-6,"MEAN_MOTION_DDOT":0},{"OBJECT_NAME":"COSMOS 2251 DEB","OBJECT_ID":"1993-036BUW","EPOCH":"2026-03-01T10:52:35.253984","MEAN_MOTION":14.42055642,"ECCENTRICITY":0.00298968,"INCLINATION":74.0181,"RA_OF_ASC_NODE":100.7281,"ARG_OF_PERICENTER":201.146,"MEAN_ANOMALY":222.943,"EPHEMERIS_TYPE":0,"CLASSIFICATION_TYPE":"U","NORAD_CAT_ID":39591,"ELEMENT_SET_NO":999,"REV_AT_EPOCH":62911,"BSTAR":0.0003777758,"MEAN_MOTION_DOT":1.221e-5,"MEAN_MOTION_DDOT":0},{"OBJECT_NAME":"COSMOS 2251 DEB","OBJECT_ID":"1993-036BUX","EPOCH":"2026-02-23T12:09:13.868064","MEAN_MOTION":14.41801815,"ECCENTRICITY":0.00164408,"INCLINATION":74.0313,"RA_OF_ASC_NODE":113.9714,"ARG_OF_PERICENTER":191.9106,"MEAN_ANOMALY":168.1664,"EPHEMERIS_TYPE":0,"CLASSIFICATION_TYPE":"U","NORAD_CAT_ID":40218,"ELEMENT_SET_NO":999,"REV_AT_EPOCH":59910,"BSTAR":0.00028392654,"MEAN_MOTION_DOT":9.03e-6,"MEAN_MOTION_DDOT":0},{"OBJECT_NAME":"COSMOS 2251 DEB","OBJECT_ID":"1993-036BVC","EPOCH":"2026-03-05T00:26:19.580352","MEAN_MOTION":15.15603304,"ECCENTRICITY":0.00117842,"INCLINATION":73.9329,"RA_OF_ASC_NODE":278.0417,"ARG_OF_PERICENTER":111.3933,"MEAN_ANOMALY":46.6341,"EPHEMERIS_TYPE":0,"CLASSIFICATION_TYPE":"U","NORAD_CAT_ID":40223,"ELEMENT_SET_NO":999,"REV_AT_EPOCH":60615,"BSTAR":0.0049366586,"MEAN_MOTION_DOT":0.00095153,"MEAN_MOTION_DDOT":0},{"OBJECT_NAME":"COSMOS 2251 DEB","OBJECT_ID":"1993-036BVH","EPOCH":"2026-02-18T05:16:17.105952","MEAN_MOTION":14.41164378,"ECCENTRICITY":0.0023166,"INCLINATION":74.0556,"RA_OF_ASC_NODE":135.7744,"ARG_OF_PERICENTER":187.3053,"MEAN_ANOMALY":204.016,"EPHEMERIS_TYPE":0,"CLASSIFICATION_TYPE":"U","NORAD_CAT_ID":40228,"ELEMENT_SET_NO":999,"REV_AT_EPOCH":59893,"BSTAR":0.00028362,"MEAN_MOTION_DOT":8.91e-6,"MEAN_MOTION_DDOT":0},{"OBJECT_NAME":"COSMOS 2251 DEB","OBJECT_ID":"1993-036BVK","EPOCH":"2026-02-21T19:30:35.054208","MEAN_MOTION":14.49812998,"ECCENTRICITY":0.00159873,"INCLINATION":74.0433,"RA_OF_ASC_NODE":93.591,"ARG_OF_PERICENTER":141.4165,"MEAN_ANOMALY":336.738,"EPHEMERIS_TYPE":0,"CLASSIFICATION_TYPE":"U","NORAD_CAT_ID":40230,"ELEMENT_SET_NO":999,"REV_AT_EPOCH":60001,"BSTAR":0.00049130745,"MEAN_MOTION_DOT":1.871e-5,"MEAN_MOTION_DDOT":0},{"OBJECT_NAME":"COSMOS 2251 DEB","OBJECT_ID":"1993-036BVN","EPOCH":"2026-03-03T17:21:05.359680","MEAN_MOTION":14.59412531,"ECCENTRICITY":0.00442671,"INCLINATION":73.9399,"RA_OF_ASC_NODE":307.9303,"ARG_OF_PERICENTER":2.4271,"MEAN_ANOMALY":357.7099,"EPHEMERIS_TYPE":0,"CLASSIFICATION_TYPE":"U","NORAD_CAT_ID":40233,"ELEMENT_SET_NO":999,"REV_AT_EPOCH":60318,"BSTAR":0.0011841882,"MEAN_MOTION_DOT":5.661e-5,"MEAN_MOTION_DDOT":0},{"OBJECT_NAME":"COSMOS 2251 DEB","OBJECT_ID":"1993-036BVR","EPOCH":"2026-03-05T04:29:31.956288","MEAN_MOTION":13.24823576,"ECCENTRICITY":0.05376342,"INCLINATION":73.5409,"RA_OF_ASC_NODE":13.7745,"ARG_OF_PERICENTER":246.6236,"MEAN_ANOMALY":107.7448,"EPHEMERIS_TYPE":0,"CLASSIFICATION_TYPE":"U","NORAD_CAT_ID":40236,"ELEMENT_SET_NO":999,"REV_AT_EPOCH":54716,"BSTAR":0.00078568703,"MEAN_MOTION_DOT":7.14e-6,"MEAN_MOTION_DDOT":0},{"OBJECT_NAME":"COSMOS 2251 DEB","OBJECT_ID":"1993-036BVT","EPOCH":"2026-02-13T03:10:30.754560","MEAN_MOTION":13.25387917,"ECCENTRICITY":0.0553052,"INCLINATION":73.9976,"RA_OF_ASC_NODE":327.7658,"ARG_OF_PERICENTER":287.868,"MEAN_ANOMALY":66.2853,"EPHEMERIS_TYPE":0,"CLASSIFICATION_TYPE":"U","NORAD_CAT_ID":40238,"ELEMENT_SET_NO":999,"REV_AT_EPOCH":54863,"BSTAR":-0.0010594337,"MEAN_MOTION_DOT":-1.079e-5,"MEAN_MOTION_DDOT":0},{"OBJECT_NAME":"COSMOS 2251 DEB","OBJECT_ID":"1993-036BVU","EPOCH":"2026-02-05T02:36:45.829728","MEAN_MOTION":14.62250063,"ECCENTRICITY":0.00869096,"INCLINATION":74.0297,"RA_OF_ASC_NODE":171.6906,"ARG_OF_PERICENTER":270.6387,"MEAN_ANOMALY":268.1502,"EPHEMERIS_TYPE":0,"CLASSIFICATION_TYPE":"U","NORAD_CAT_ID":40239,"ELEMENT_SET_NO":999,"REV_AT_EPOCH":60405,"BSTAR":0.00055490899,"MEAN_MOTION_DOT":2.921e-5,"MEAN_MOTION_DDOT":0}]
